{
 "type": "FeatureCollection",
 "name": "road_hazards",
 "crs": {
  "type": "name",
  "properties": {
   "name": "urn:ogc:def:crs:OGC:1.3:CRS84"
  }
 },
 "features": [
  {
   "type": "Feature",
   "id": "H001",
   "geometry": {
    "type": "LineString",
    "coordinates": [
     [
      77.2443661,
      32.3675801
     ],
     [
      77.2443429,
      32.3676097
     ],
     [
      77.2443114,
      32.3675804
     ],
     [
      77.2442762,
      32.3675791
     ],
     [
      77.2442439,
      32.3675795
     ],
     [
      77.2441317,
      32.3675711
     ],
     [
      77.2440855,
      32.3675918
     ],
     [
      77.2440521,
      32.3675737
     ],
     [
      77.2440197,
      32.3675736
     ],
     [
      77.2439891,
      32.3675825
     ],
     [
      77.2439298,
      32.3675612
     ],
     [
      77.2438641,
      32.3675701
     ],
     [
      77.2439026,
      32.3675786
     ],
     [
      77.2438715,
      32.3675866
     ],
     [
      77.243839,
      32.3675864
     ],
     [
      77.2438091,
      32.3675747
     ],
     [
      77.2437778,
      32.3675864
     ],
     [
      77.2437465,
      32.3675981
     ],
     [
      77.2437153,
      32.3676098
     ],
     [
      77.2436741,
      32.3675868
     ],
     [
      77.2436286,
      32.3675526
     ],
     [
      77.2436122,
      32.3675288
     ],
     [
      77.2435865,
      32.3675607
     ],
     [
      77.2435654,
      32.3675237
     ],
     [
      77.2435315,
      32.3675212
     ],
     [
      77.2435135,
      32.3674894
     ],
     [
      77.2434955,
      32.367467
     ],
     [
      77.2434891,
      32.367504
     ],
     [
      77.2434828,
      32.3674753
     ],
     [
      77.2434503,
      32.3674708
     ],
     [
      77.2434194,
      32.3674443
     ],
     [
      77.2433918,
      32.3674305
     ],
     [
      77.2433578,
      32.367423
     ],
     [
      77.2433003,
      32.3674171
     ],
     [
      77.2432844,
      32.3673872
     ],
     [
      77.2432673,
      32.3673612
     ],
     [
      77.243279,
      32.3673315
     ],
     [
      77.2432542,
      32.3673627
     ],
     [
      77.24318,
      32.3673174
     ]
    ]
   },
   "properties": {
    "id": "H001",
    "category": "flooding",
    "labels": [
     "flooded road",
     "scene:flooding"
    ],
    "severity": "high",
    "severity_score": 0.8,
    "confidence": 0.956,
    "detections": 208,
    "frames": 194,
    "sources": [
     "scene",
     "world"
    ],
    "first_seen": "2017-06-20T05:00:00.200+00:00",
    "last_seen": "2017-06-20T05:00:59.859+00:00",
    "video_time_s": 0.2,
    "min_range_m": 2.0,
    "extent_m": 117.1,
    "centroid": [
     77.2436522,
     32.3675114
    ],
    "gps_gap_s": 4.4,
    "gps_quality": "good",
    "snapshot": "snapshots/H001.jpg"
   }
  },
  {
   "type": "Feature",
   "id": "H002",
   "geometry": {
    "type": "Point",
    "coordinates": [
     77.2441684,
     32.3675895
    ]
   },
   "properties": {
    "id": "H002",
    "category": "landslide",
    "labels": [
     "scene:landslide"
    ],
    "severity": "high",
    "severity_score": 0.99,
    "confidence": 0.931,
    "detections": 14,
    "frames": 14,
    "sources": [
     "scene"
    ],
    "first_seen": "2017-06-20T05:00:06.006+00:00",
    "last_seen": "2017-06-20T05:00:13.013+00:00",
    "video_time_s": 6.01,
    "min_range_m": 2.0,
    "extent_m": 15.8,
    "centroid": [
     77.2441684,
     32.3675895
    ],
    "gps_gap_s": 0.4,
    "gps_quality": "good",
    "snapshot": "snapshots/H002.jpg"
   }
  }
 ]
}