{"type": "FeatureCollection", "features": [{"type": "Feature", "properties": {"kind": "trajectory", "start": "2017-06-20T05:00:00.000+00:00", "end": "2017-06-20T05:01:00.000+00:00", "points": 53}, "geometry": {"type": "LineString", "coordinates": [[77.2443931, 32.3675718], [77.2443642, 32.3676097], [77.2443248, 32.3675742], [77.2443048, 32.3675723], [77.2442865, 32.3675876], [77.2442652, 32.367581], [77.2442448, 32.3675709], [77.2442343, 32.3675783], [77.2441703, 32.3675536], [77.2441856, 32.3675686], [77.2441472, 32.3676292], [77.2441525, 32.3675755], [77.2441295, 32.3675906], [77.2440754, 32.3675871], [77.2441069, 32.3675958], [77.2440657, 32.3675687], [77.2440253, 32.3675731], [77.2440112, 32.3675821], [77.2439633, 32.3675718], [77.2439583, 32.3675715], [77.2439482, 32.3675658], [77.2438707, 32.3675653], [77.2439353, 32.3675806], [77.2438669, 32.3675898], [77.2438371, 32.3675768], [77.2437278, 32.3676199], [77.2436495, 32.3675588], [77.2436303, 32.3675378], [77.2436162, 32.3675677], [77.2435696, 32.3675019], [77.2435579, 32.3675415], [77.2435269, 32.3674902], [77.2435049, 32.3674702], [77.2435103, 32.3675166], [77.2434996, 32.3674879], [77.2434721, 32.3674797], [77.2434168, 32.3674414], [77.2434493, 32.3674606], [77.2434316, 32.3674484], [77.2434124, 32.3674367], [77.2433994, 32.3674363], [77.2433662, 32.3674249], [77.2433552, 32.3674158], [77.2433132, 32.3674255], [77.243336, 32.3674265], [77.2432903, 32.3673975], [77.2432648, 32.3673869], [77.2432722, 32.3673567], [77.2432914, 32.3673283], [77.243271, 32.3673763], [77.2432126, 32.3673404], [77.2431951, 32.3673093], [77.2431755, 32.3673182]]}}]}