<?xml version="1.0" encoding="UTF-8"?>
<gpx version="1.1" creator="hazardmap (simulated along NH3 via OSRM)" xmlns="http://www.topografix.com/GPX/1/1">
  <trk><name>NH3 Manali-Leh highway near Rohtang Pass (simulated GPS)</name><trkseg>
      <trkpt lat="32.3675718" lon="77.2443931"><ele>3700</ele><time>2017-06-20T05:00:00Z</time></trkpt>
      <trkpt lat="32.3676097" lon="77.2443642"><ele>3700</ele><time>2017-06-20T05:00:01Z</time></trkpt>
      <trkpt lat="32.3675742" lon="77.2443248"><ele>3700</ele><time>2017-06-20T05:00:02Z</time></trkpt>
      <trkpt lat="32.3675723" lon="77.2443048"><ele>3700</ele><time>2017-06-20T05:00:03Z</time></trkpt>
      <trkpt lat="32.3675876" lon="77.2442865"><ele>3700</ele><time>2017-06-20T05:00:04Z</time></trkpt>
      <trkpt lat="32.3675810" lon="77.2442652"><ele>3700</ele><time>2017-06-20T05:00:05Z</time></trkpt>
      <trkpt lat="32.3675709" lon="77.2442448"><ele>3700</ele><time>2017-06-20T05:00:06Z</time></trkpt>
      <trkpt lat="32.3675783" lon="77.2442343"><ele>3700</ele><time>2017-06-20T05:00:07Z</time></trkpt>
      <trkpt lat="32.3675536" lon="77.2441703"><ele>3700</ele><time>2017-06-20T05:00:08Z</time></trkpt>
      <trkpt lat="32.3675686" lon="77.2441856"><ele>3700</ele><time>2017-06-20T05:00:09Z</time></trkpt>
      <trkpt lat="32.3676292" lon="77.2441472"><ele>3700</ele><time>2017-06-20T05:00:10Z</time></trkpt>
      <trkpt lat="32.3675755" lon="77.2441525"><ele>3700</ele><time>2017-06-20T05:00:11Z</time></trkpt>
      <trkpt lat="32.3675906" lon="77.2441295"><ele>3700</ele><time>2017-06-20T05:00:12Z</time></trkpt>
      <trkpt lat="32.3675871" lon="77.2440754"><ele>3700</ele><time>2017-06-20T05:00:13Z</time></trkpt>
      <trkpt lat="32.3675958" lon="77.2441069"><ele>3700</ele><time>2017-06-20T05:00:14Z</time></trkpt>
      <trkpt lat="32.3675687" lon="77.2440657"><ele>3700</ele><time>2017-06-20T05:00:15Z</time></trkpt>
      <trkpt lat="32.3675731" lon="77.2440253"><ele>3700</ele><time>2017-06-20T05:00:16Z</time></trkpt>
      <trkpt lat="32.3675821" lon="77.2440112"><ele>3700</ele><time>2017-06-20T05:00:17Z</time></trkpt>
      <trkpt lat="32.3675718" lon="77.2439633"><ele>3700</ele><time>2017-06-20T05:00:18Z</time></trkpt>
      <trkpt lat="32.3675715" lon="77.2439583"><ele>3700</ele><time>2017-06-20T05:00:19Z</time></trkpt>
      <trkpt lat="32.3675658" lon="77.2439482"><ele>3700</ele><time>2017-06-20T05:00:20Z</time></trkpt>
      <trkpt lat="32.3675653" lon="77.2438707"><ele>3700</ele><time>2017-06-20T05:00:21Z</time></trkpt>
      <trkpt lat="32.3675806" lon="77.2439353"><ele>3700</ele><time>2017-06-20T05:00:22Z</time></trkpt>
      <trkpt lat="32.3675898" lon="77.2438669"><ele>3700</ele><time>2017-06-20T05:00:23Z</time></trkpt>
      <trkpt lat="32.3675768" lon="77.2438371"><ele>3700</ele><time>2017-06-20T05:00:24Z</time></trkpt>
      <trkpt lat="32.3676199" lon="77.2437278"><ele>3700</ele><time>2017-06-20T05:00:33Z</time></trkpt>
      <trkpt lat="32.3675588" lon="77.2436495"><ele>3700</ele><time>2017-06-20T05:00:34Z</time></trkpt>
      <trkpt lat="32.3675378" lon="77.2436303"><ele>3700</ele><time>2017-06-20T05:00:35Z</time></trkpt>
      <trkpt lat="32.3675677" lon="77.2436162"><ele>3700</ele><time>2017-06-20T05:00:36Z</time></trkpt>
      <trkpt lat="32.3675019" lon="77.2435696"><ele>3700</ele><time>2017-06-20T05:00:37Z</time></trkpt>
      <trkpt lat="32.3675415" lon="77.2435579"><ele>3700</ele><time>2017-06-20T05:00:38Z</time></trkpt>
      <trkpt lat="32.3674902" lon="77.2435269"><ele>3700</ele><time>2017-06-20T05:00:39Z</time></trkpt>
      <trkpt lat="32.3674702" lon="77.2435049"><ele>3700</ele><time>2017-06-20T05:00:40Z</time></trkpt>
      <trkpt lat="32.3675166" lon="77.2435103"><ele>3700</ele><time>2017-06-20T05:00:41Z</time></trkpt>
      <trkpt lat="32.3674879" lon="77.2434996"><ele>3700</ele><time>2017-06-20T05:00:42Z</time></trkpt>
      <trkpt lat="32.3674797" lon="77.2434721"><ele>3700</ele><time>2017-06-20T05:00:43Z</time></trkpt>
      <trkpt lat="32.3674414" lon="77.2434168"><ele>3700</ele><time>2017-06-20T05:00:44Z</time></trkpt>
      <trkpt lat="32.3674606" lon="77.2434493"><ele>3700</ele><time>2017-06-20T05:00:45Z</time></trkpt>
      <trkpt lat="32.3674484" lon="77.2434316"><ele>3700</ele><time>2017-06-20T05:00:46Z</time></trkpt>
      <trkpt lat="32.3674367" lon="77.2434124"><ele>3700</ele><time>2017-06-20T05:00:47Z</time></trkpt>
      <trkpt lat="32.3674363" lon="77.2433994"><ele>3700</ele><time>2017-06-20T05:00:48Z</time></trkpt>
      <trkpt lat="32.3674249" lon="77.2433662"><ele>3700</ele><time>2017-06-20T05:00:49Z</time></trkpt>
      <trkpt lat="32.3674158" lon="77.2433552"><ele>3700</ele><time>2017-06-20T05:00:50Z</time></trkpt>
      <trkpt lat="32.3674255" lon="77.2433132"><ele>3700</ele><time>2017-06-20T05:00:51Z</time></trkpt>
      <trkpt lat="32.3674265" lon="77.2433360"><ele>3700</ele><time>2017-06-20T05:00:52Z</time></trkpt>
      <trkpt lat="32.3673975" lon="77.2432903"><ele>3700</ele><time>2017-06-20T05:00:53Z</time></trkpt>
      <trkpt lat="32.3673869" lon="77.2432648"><ele>3700</ele><time>2017-06-20T05:00:54Z</time></trkpt>
      <trkpt lat="32.3673567" lon="77.2432722"><ele>3700</ele><time>2017-06-20T05:00:55Z</time></trkpt>
      <trkpt lat="32.3673283" lon="77.2432914"><ele>3700</ele><time>2017-06-20T05:00:56Z</time></trkpt>
      <trkpt lat="32.3673763" lon="77.2432710"><ele>3700</ele><time>2017-06-20T05:00:57Z</time></trkpt>
      <trkpt lat="32.3673404" lon="77.2432126"><ele>3700</ele><time>2017-06-20T05:00:58Z</time></trkpt>
      <trkpt lat="32.3673093" lon="77.2431951"><ele>3700</ele><time>2017-06-20T05:00:59Z</time></trkpt>
      <trkpt lat="32.3673182" lon="77.2431755"><ele>3700</ele><time>2017-06-20T05:01:00Z</time></trkpt>
  </trkseg></trk>
</gpx>
