{
 "type": "FeatureCollection",
 "name": "road_hazards",
 "crs": {
  "type": "name",
  "properties": {
   "name": "urn:ogc:def:crs:OGC:1.3:CRS84"
  }
 },
 "features": [
  {
   "type": "Feature",
   "id": "H001",
   "geometry": {
    "type": "Point",
    "coordinates": [
     -93.2329799,
     36.6444169
    ]
   },
   "properties": {
    "id": "H001",
    "category": "crack",
    "labels": [
     "Longitudinal Crack"
    ],
    "severity": "low",
    "severity_score": 0.196,
    "confidence": 0.527,
    "detections": 3,
    "frames": 3,
    "sources": [
     "rdd"
    ],
    "first_seen": "2012-03-01T17:00:10.810+00:00",
    "last_seen": "2012-03-01T17:00:11.411+00:00",
    "video_time_s": 10.81,
    "min_range_m": 4.2,
    "extent_m": 9.7,
    "centroid": [
     -93.2329799,
     36.6444169
    ],
    "gps_gap_s": 1.4,
    "gps_quality": "good",
    "snapshot": "snapshots/H001.jpg"
   }
  },
  {
   "type": "Feature",
   "id": "H002",
   "geometry": {
    "type": "LineString",
    "coordinates": [
     [
      -93.2335011,
      36.6445062
     ],
     [
      -93.2335444,
      36.6445135
     ],
     [
      -93.2335875,
      36.6445078
     ],
     [
      -93.2336315,
      36.6445018
     ],
     [
      -93.2336755,
      36.6444958
     ],
     [
      -93.2337193,
      36.6444901
     ]
    ]
   },
   "properties": {
    "id": "H002",
    "category": "crack",
    "labels": [
     "Longitudinal Crack"
    ],
    "severity": "low",
    "severity_score": 0.218,
    "confidence": 0.54,
    "detections": 6,
    "frames": 6,
    "sources": [
     "rdd"
    ],
    "first_seen": "2012-03-01T17:00:13.813+00:00",
    "last_seen": "2012-03-01T17:00:14.814+00:00",
    "video_time_s": 13.81,
    "min_range_m": 4.5,
    "extent_m": 19.6,
    "centroid": [
     -93.2336047,
     36.6445029
    ],
    "gps_gap_s": 0.4,
    "gps_quality": "good",
    "snapshot": "snapshots/H002.jpg"
   }
  },
  {
   "type": "Feature",
   "id": "H003",
   "geometry": {
    "type": "Point",
    "coordinates": [
     -93.2364123,
     36.64212
    ]
   },
   "properties": {
    "id": "H003",
    "category": "crack",
    "labels": [
     "Longitudinal Crack"
    ],
    "severity": "low",
    "severity_score": 0.219,
    "confidence": 0.658,
    "detections": 4,
    "frames": 4,
    "sources": [
     "rdd"
    ],
    "first_seen": "2012-03-01T17:00:35.235+00:00",
    "last_seen": "2012-03-01T17:00:36.035+00:00",
    "video_time_s": 35.24,
    "min_range_m": 4.4,
    "extent_m": 14.9,
    "centroid": [
     -93.2364123,
     36.64212
    ],
    "gps_gap_s": 1.0,
    "gps_quality": "good",
    "snapshot": "snapshots/H003.jpg"
   }
  },
  {
   "type": "Feature",
   "id": "H004",
   "geometry": {
    "type": "LineString",
    "coordinates": [
     [
      -93.2382147,
      36.640679
     ],
     [
      -93.2382502,
      36.6406564
     ],
     [
      -93.2383551,
      36.6405891
     ],
     [
      -93.2383881,
      36.6405658
     ],
     [
      -93.23842,
      36.6405425
     ]
    ]
   },
   "properties": {
    "id": "H004",
    "category": "crack",
    "labels": [
     "Longitudinal Crack"
    ],
    "severity": "low",
    "severity_score": 0.237,
    "confidence": 0.706,
    "detections": 5,
    "frames": 5,
    "sources": [
     "rdd"
    ],
    "first_seen": "2012-03-01T17:00:47.247+00:00",
    "last_seen": "2012-03-01T17:00:48.448+00:00",
    "video_time_s": 47.25,
    "min_range_m": 4.3,
    "extent_m": 23.8,
    "centroid": [
     -93.2383301,
     36.6406035
    ],
    "gps_gap_s": 0.4,
    "gps_quality": "good",
    "snapshot": "snapshots/H004.jpg"
   }
  },
  {
   "type": "Feature",
   "id": "H005",
   "geometry": {
    "type": "Point",
    "coordinates": [
     -93.2391016,
     36.6402138
    ]
   },
   "properties": {
    "id": "H005",
    "category": "crack",
    "labels": [
     "Longitudinal Crack"
    ],
    "severity": "low",
    "severity_score": 0.215,
    "confidence": 0.551,
    "detections": 2,
    "frames": 2,
    "sources": [
     "rdd"
    ],
    "first_seen": "2012-03-01T17:00:52.051+00:00",
    "last_seen": "2012-03-01T17:00:52.252+00:00",
    "video_time_s": 52.05,
    "min_range_m": 4.5,
    "extent_m": 4.0,
    "centroid": [
     -93.2391016,
     36.6402138
    ],
    "gps_gap_s": 0.2,
    "gps_quality": "good",
    "snapshot": "snapshots/H005.jpg"
   }
  },
  {
   "type": "Feature",
   "id": "H006",
   "geometry": {
    "type": "LineString",
    "coordinates": [
     [
      -93.2430242,
      36.640242
     ],
     [
      -93.243234,
      36.6402667
     ],
     [
      -93.2434924,
      36.6402677
     ]
    ]
   },
   "properties": {
    "id": "H006",
    "category": "crack",
    "labels": [
     "Longitudinal Crack"
    ],
    "severity": "low",
    "severity_score": 0.227,
    "confidence": 0.372,
    "detections": 3,
    "frames": 3,
    "sources": [
     "rdd"
    ],
    "first_seen": "2012-03-01T17:01:10.069+00:00",
    "last_seen": "2012-03-01T17:01:12.071+00:00",
    "video_time_s": 70.07,
    "min_range_m": 4.4,
    "extent_m": 42.0,
    "centroid": [
     -93.2432465,
     36.6402587
    ],
    "gps_gap_s": 0.1,
    "gps_quality": "good",
    "snapshot": "snapshots/H006.jpg"
   }
  },
  {
   "type": "Feature",
   "id": "H007",
   "geometry": {
    "type": "LineString",
    "coordinates": [
     [
      -93.2459328,
      36.6406982
     ],
     [
      -93.2458759,
      36.6407611
     ],
     [
      -93.2458489,
      36.6407919
     ],
     [
      -93.2458255,
      36.6408228
     ],
     [
      -93.245805,
      36.6408509
     ],
     [
      -93.2457851,
      36.6408797
     ],
     [
      -93.2457653,
      36.6409093
     ],
     [
      -93.2457465,
      36.6409385
     ],
     [
      -93.245726,
      36.6409697
     ],
     [
      -93.2457067,
      36.6410048
     ],
     [
      -93.2456814,
      36.6410381
     ],
     [
      -93.2453531,
      36.6416516
     ],
     [
      -93.2453334,
      36.6416827
     ]
    ]
   },
   "properties": {
    "id": "H007",
    "category": "crack",
    "labels": [
     "Longitudinal Crack"
    ],
    "severity": "low",
    "severity_score": 0.272,
    "confidence": 0.741,
    "detections": 13,
    "frames": 13,
    "sources": [
     "rdd"
    ],
    "first_seen": "2012-03-01T17:01:24.284+00:00",
    "last_seen": "2012-03-01T17:01:30.490+00:00",
    "video_time_s": 84.28,
    "min_range_m": 4.4,
    "extent_m": 121.7,
    "centroid": [
     -93.2457291,
     36.6409888
    ],
    "gps_gap_s": 0.5,
    "gps_quality": "good",
    "snapshot": "snapshots/H007.jpg"
   }
  }
 ]
}