{"type": "FeatureCollection", "features": [{"type": "Feature", "properties": {"kind": "trajectory", "start": "2012-03-01T17:00:00.000+00:00", "end": "2012-03-01T17:01:52.011+00:00", "points": 95}, "geometry": {"type": "LineString", "coordinates": [[-93.2333856, 36.6433069], [-93.2331546, 36.6433021], [-93.2329441, 36.6433011], [-93.2325606, 36.6433587], [-93.2325744, 36.6436785], [-93.2326963, 36.6438309], [-93.2327793, 36.6441669], [-93.2327527, 36.644342], [-93.2332749, 36.644482], [-93.2334934, 36.6445267], [-93.2337131, 36.644498], [-93.2339415, 36.6445], [-93.2341487, 36.6445301], [-93.2345798, 36.6445429], [-93.2348185, 36.6444926], [-93.2349948, 36.6444304], [-93.2351971, 36.6443218], [-93.2353321, 36.6442006], [-93.2354875, 36.6440787], [-93.2356438, 36.6439356], [-93.2357362, 36.6437838], [-93.2358708, 36.643633], [-93.2359849, 36.6434816], [-93.2360638, 36.6433271], [-93.2360905, 36.6431317], [-93.2361371, 36.6429357], [-93.2361437, 36.6427696], [-93.2361474, 36.6426553], [-93.2363201, 36.6422603], [-93.2365404, 36.6419763], [-93.2366843, 36.6418251], [-93.2368423, 36.6416967], [-93.2369963, 36.641577], [-93.2371637, 36.6414509], [-93.2373306, 36.6413385], [-93.2375043, 36.6412339], [-93.2376331, 36.6410895], [-93.2378366, 36.6409742], [-93.2379826, 36.640858], [-93.2381446, 36.6407377], [-93.2383119, 36.640621], [-93.2386389, 36.6403903], [-93.2390344, 36.6402402], [-93.2392496, 36.6401945], [-93.2394601, 36.6402205], [-93.2397012, 36.6402139], [-93.2398915, 36.640239], [-93.240113, 36.6401853], [-93.2403573, 36.6402408], [-93.2405604, 36.6402439], [-93.2407964, 36.6402532], [-93.2410311, 36.6402545], [-93.241466, 36.6402543], [-93.2416895, 36.6402504], [-93.2419103, 36.6402628], [-93.2423407, 36.6402588], [-93.2425974, 36.6402688], [-93.2429612, 36.6402539], [-93.2432214, 36.6402813], [-93.2434288, 36.6402812], [-93.2436913, 36.6403172], [-93.243888, 36.6403025], [-93.2441566, 36.6403145], [-93.2443259, 36.6403005], [-93.2445492, 36.6403], [-93.2447766, 36.6403063], [-93.2450189, 36.6403121], [-93.2452163, 36.6403339], [-93.2454411, 36.640368], [-93.2456459, 36.6404188], [-93.245866, 36.6405051], [-93.2459597, 36.6406148], [-93.2458401, 36.6407719], [-93.2457396, 36.6409166], [-93.2456255, 36.6410858], [-93.2455426, 36.641231], [-93.2454649, 36.6413613], [-93.2453833, 36.6415664], [-93.2452893, 36.6417262], [-93.2452052, 36.6418879], [-93.2449352, 36.642186], [-93.2450448, 36.6423061], [-93.2452111, 36.6424416], [-93.2453173, 36.6425939], [-93.245357, 36.6427432], [-93.2451282, 36.6430558], [-93.2449513, 36.6431615], [-93.2448414, 36.6433003], [-93.2448448, 36.6434692], [-93.2450395, 36.6435089], [-93.245278, 36.6435208], [-93.2454877, 36.6435205], [-93.2459393, 36.64353], [-93.246142, 36.6435094], [-93.2463995, 36.6437728]]}}]}