<?xml version="1.0" encoding="UTF-8"?>
<gpx version="1.1" creator="hazardmap make_gpx" xmlns="http://www.topografix.com/GPX/1/1">
  <trk><name>simulated</name><trkseg>
      <trkpt lat="36.6433069" lon="-93.2333856"><time>2012-03-01T17:00:00Z</time></trkpt>
      <trkpt lat="36.6433021" lon="-93.2331546"><time>2012-03-01T17:00:01.000106Z</time></trkpt>
      <trkpt lat="36.6433011" lon="-93.2329441"><time>2012-03-01T17:00:02.000212Z</time></trkpt>
      <trkpt lat="36.6433587" lon="-93.2325606"><time>2012-03-01T17:00:04.000425Z</time></trkpt>
      <trkpt lat="36.6436785" lon="-93.2325744"><time>2012-03-01T17:00:06.000637Z</time></trkpt>
      <trkpt lat="36.6438309" lon="-93.2326963"><time>2012-03-01T17:00:07.000743Z</time></trkpt>
      <trkpt lat="36.6441669" lon="-93.2327793"><time>2012-03-01T17:00:09.000956Z</time></trkpt>
      <trkpt lat="36.6443420" lon="-93.2327527"><time>2012-03-01T17:00:10.001062Z</time></trkpt>
      <trkpt lat="36.6444820" lon="-93.2332749"><time>2012-03-01T17:00:13.001381Z</time></trkpt>
      <trkpt lat="36.6445267" lon="-93.2334934"><time>2012-03-01T17:00:14.001487Z</time></trkpt>
      <trkpt lat="36.6444980" lon="-93.2337131"><time>2012-03-01T17:00:15.001593Z</time></trkpt>
      <trkpt lat="36.6445000" lon="-93.2339415"><time>2012-03-01T17:00:16.001699Z</time></trkpt>
      <trkpt lat="36.6445301" lon="-93.2341487"><time>2012-03-01T17:00:17.001805Z</time></trkpt>
      <trkpt lat="36.6445429" lon="-93.2345798"><time>2012-03-01T17:00:19.002018Z</time></trkpt>
      <trkpt lat="36.6444926" lon="-93.2348185"><time>2012-03-01T17:00:20.002124Z</time></trkpt>
      <trkpt lat="36.6444304" lon="-93.2349948"><time>2012-03-01T17:00:21.002230Z</time></trkpt>
      <trkpt lat="36.6443218" lon="-93.2351971"><time>2012-03-01T17:00:22.002336Z</time></trkpt>
      <trkpt lat="36.6442006" lon="-93.2353321"><time>2012-03-01T17:00:23.002443Z</time></trkpt>
      <trkpt lat="36.6440787" lon="-93.2354875"><time>2012-03-01T17:00:24.002549Z</time></trkpt>
      <trkpt lat="36.6439356" lon="-93.2356438"><time>2012-03-01T17:00:25.002655Z</time></trkpt>
      <trkpt lat="36.6437838" lon="-93.2357362"><time>2012-03-01T17:00:26.002761Z</time></trkpt>
      <trkpt lat="36.6436330" lon="-93.2358708"><time>2012-03-01T17:00:27.002867Z</time></trkpt>
      <trkpt lat="36.6434816" lon="-93.2359849"><time>2012-03-01T17:00:28.002973Z</time></trkpt>
      <trkpt lat="36.6433271" lon="-93.2360638"><time>2012-03-01T17:00:29.003080Z</time></trkpt>
      <trkpt lat="36.6431317" lon="-93.2360905"><time>2012-03-01T17:00:30.003186Z</time></trkpt>
      <trkpt lat="36.6429357" lon="-93.2361371"><time>2012-03-01T17:00:31.003292Z</time></trkpt>
      <trkpt lat="36.6427696" lon="-93.2361437"><time>2012-03-01T17:00:32.003398Z</time></trkpt>
      <trkpt lat="36.6426553" lon="-93.2361474"><time>2012-03-01T17:00:33.003504Z</time></trkpt>
      <trkpt lat="36.6422603" lon="-93.2363201"><time>2012-03-01T17:00:35.003717Z</time></trkpt>
      <trkpt lat="36.6419763" lon="-93.2365404"><time>2012-03-01T17:00:37.003929Z</time></trkpt>
      <trkpt lat="36.6418251" lon="-93.2366843"><time>2012-03-01T17:00:38.004035Z</time></trkpt>
      <trkpt lat="36.6416967" lon="-93.2368423"><time>2012-03-01T17:00:39.004142Z</time></trkpt>
      <trkpt lat="36.6415770" lon="-93.2369963"><time>2012-03-01T17:00:40.004248Z</time></trkpt>
      <trkpt lat="36.6414509" lon="-93.2371637"><time>2012-03-01T17:00:41.004354Z</time></trkpt>
      <trkpt lat="36.6413385" lon="-93.2373306"><time>2012-03-01T17:00:42.004460Z</time></trkpt>
      <trkpt lat="36.6412339" lon="-93.2375043"><time>2012-03-01T17:00:43.004566Z</time></trkpt>
      <trkpt lat="36.6410895" lon="-93.2376331"><time>2012-03-01T17:00:44.004673Z</time></trkpt>
      <trkpt lat="36.6409742" lon="-93.2378366"><time>2012-03-01T17:00:45.004779Z</time></trkpt>
      <trkpt lat="36.6408580" lon="-93.2379826"><time>2012-03-01T17:00:46.004885Z</time></trkpt>
      <trkpt lat="36.6407377" lon="-93.2381446"><time>2012-03-01T17:00:47.004991Z</time></trkpt>
      <trkpt lat="36.6406210" lon="-93.2383119"><time>2012-03-01T17:00:48.005097Z</time></trkpt>
      <trkpt lat="36.6403903" lon="-93.2386389"><time>2012-03-01T17:00:50.005310Z</time></trkpt>
      <trkpt lat="36.6402402" lon="-93.2390344"><time>2012-03-01T17:00:52.005522Z</time></trkpt>
      <trkpt lat="36.6401945" lon="-93.2392496"><time>2012-03-01T17:00:53.005628Z</time></trkpt>
      <trkpt lat="36.6402205" lon="-93.2394601"><time>2012-03-01T17:00:54.005735Z</time></trkpt>
      <trkpt lat="36.6402139" lon="-93.2397012"><time>2012-03-01T17:00:55.005841Z</time></trkpt>
      <trkpt lat="36.6402390" lon="-93.2398915"><time>2012-03-01T17:00:56.005947Z</time></trkpt>
      <trkpt lat="36.6401853" lon="-93.2401130"><time>2012-03-01T17:00:57.006053Z</time></trkpt>
      <trkpt lat="36.6402408" lon="-93.2403573"><time>2012-03-01T17:00:58.006159Z</time></trkpt>
      <trkpt lat="36.6402439" lon="-93.2405604"><time>2012-03-01T17:00:59.006266Z</time></trkpt>
      <trkpt lat="36.6402532" lon="-93.2407964"><time>2012-03-01T17:01:00.006372Z</time></trkpt>
      <trkpt lat="36.6402545" lon="-93.2410311"><time>2012-03-01T17:01:01.006478Z</time></trkpt>
      <trkpt lat="36.6402543" lon="-93.2414660"><time>2012-03-01T17:01:03.006690Z</time></trkpt>
      <trkpt lat="36.6402504" lon="-93.2416895"><time>2012-03-01T17:01:04.006797Z</time></trkpt>
      <trkpt lat="36.6402628" lon="-93.2419103"><time>2012-03-01T17:01:05.006903Z</time></trkpt>
      <trkpt lat="36.6402588" lon="-93.2423407"><time>2012-03-01T17:01:07.007115Z</time></trkpt>
      <trkpt lat="36.6402688" lon="-93.2425974"><time>2012-03-01T17:01:08.007221Z</time></trkpt>
      <trkpt lat="36.6402539" lon="-93.2429612"><time>2012-03-01T17:01:10.007434Z</time></trkpt>
      <trkpt lat="36.6402813" lon="-93.2432214"><time>2012-03-01T17:01:11.007540Z</time></trkpt>
      <trkpt lat="36.6402812" lon="-93.2434288"><time>2012-03-01T17:01:12.007646Z</time></trkpt>
      <trkpt lat="36.6403172" lon="-93.2436913"><time>2012-03-01T17:01:13.007752Z</time></trkpt>
      <trkpt lat="36.6403025" lon="-93.2438880"><time>2012-03-01T17:01:14.007859Z</time></trkpt>
      <trkpt lat="36.6403145" lon="-93.2441566"><time>2012-03-01T17:01:15.007965Z</time></trkpt>
      <trkpt lat="36.6403005" lon="-93.2443259"><time>2012-03-01T17:01:16.008071Z</time></trkpt>
      <trkpt lat="36.6403000" lon="-93.2445492"><time>2012-03-01T17:01:17.008177Z</time></trkpt>
      <trkpt lat="36.6403063" lon="-93.2447766"><time>2012-03-01T17:01:18.008283Z</time></trkpt>
      <trkpt lat="36.6403121" lon="-93.2450189"><time>2012-03-01T17:01:19.008390Z</time></trkpt>
      <trkpt lat="36.6403339" lon="-93.2452163"><time>2012-03-01T17:01:20.008496Z</time></trkpt>
      <trkpt lat="36.6403680" lon="-93.2454411"><time>2012-03-01T17:01:21.008602Z</time></trkpt>
      <trkpt lat="36.6404188" lon="-93.2456459"><time>2012-03-01T17:01:22.008708Z</time></trkpt>
      <trkpt lat="36.6405051" lon="-93.2458660"><time>2012-03-01T17:01:23.008814Z</time></trkpt>
      <trkpt lat="36.6406148" lon="-93.2459597"><time>2012-03-01T17:01:24.008921Z</time></trkpt>
      <trkpt lat="36.6407719" lon="-93.2458401"><time>2012-03-01T17:01:25.009027Z</time></trkpt>
      <trkpt lat="36.6409166" lon="-93.2457396"><time>2012-03-01T17:01:26.009133Z</time></trkpt>
      <trkpt lat="36.6410858" lon="-93.2456255"><time>2012-03-01T17:01:27.009239Z</time></trkpt>
      <trkpt lat="36.6412310" lon="-93.2455426"><time>2012-03-01T17:01:28.009345Z</time></trkpt>
      <trkpt lat="36.6413613" lon="-93.2454649"><time>2012-03-01T17:01:29.009451Z</time></trkpt>
      <trkpt lat="36.6415664" lon="-93.2453833"><time>2012-03-01T17:01:30.009558Z</time></trkpt>
      <trkpt lat="36.6417262" lon="-93.2452893"><time>2012-03-01T17:01:31.009664Z</time></trkpt>
      <trkpt lat="36.6418879" lon="-93.2452052"><time>2012-03-01T17:01:32.009770Z</time></trkpt>
      <trkpt lat="36.6421860" lon="-93.2449352"><time>2012-03-01T17:01:34.009982Z</time></trkpt>
      <trkpt lat="36.6423061" lon="-93.2450448"><time>2012-03-01T17:01:35.010089Z</time></trkpt>
      <trkpt lat="36.6424416" lon="-93.2452111"><time>2012-03-01T17:01:36.010195Z</time></trkpt>
      <trkpt lat="36.6425939" lon="-93.2453173"><time>2012-03-01T17:01:37.010301Z</time></trkpt>
      <trkpt lat="36.6427432" lon="-93.2453570"><time>2012-03-01T17:01:38.010407Z</time></trkpt>
      <trkpt lat="36.6430558" lon="-93.2451282"><time>2012-03-01T17:01:40.010620Z</time></trkpt>
      <trkpt lat="36.6431615" lon="-93.2449513"><time>2012-03-01T17:01:41.010726Z</time></trkpt>
      <trkpt lat="36.6433003" lon="-93.2448414"><time>2012-03-01T17:01:42.010832Z</time></trkpt>
      <trkpt lat="36.6434692" lon="-93.2448448"><time>2012-03-01T17:01:43.010938Z</time></trkpt>
      <trkpt lat="36.6435089" lon="-93.2450395"><time>2012-03-01T17:01:44.011044Z</time></trkpt>
      <trkpt lat="36.6435208" lon="-93.2452780"><time>2012-03-01T17:01:45.011151Z</time></trkpt>
      <trkpt lat="36.6435205" lon="-93.2454877"><time>2012-03-01T17:01:46.011257Z</time></trkpt>
      <trkpt lat="36.6435300" lon="-93.2459393"><time>2012-03-01T17:01:48.011469Z</time></trkpt>
      <trkpt lat="36.6435094" lon="-93.2461420"><time>2012-03-01T17:01:49.011575Z</time></trkpt>
      <trkpt lat="36.6437728" lon="-93.2463995"><time>2012-03-01T17:01:52.011894Z</time></trkpt>
  </trkseg></trk>
</gpx>
