<?xml version="1.0" encoding="UTF-8"?>
<gpx version="1.1" creator="hazardmap make_gpx" xmlns="http://www.topografix.com/GPX/1/1">
  <trk><name>simulated</name><trkseg>
      <trkpt lat="18.5073798" lon="73.8076915"><time>2026-10-09T05:00:00Z</time></trkpt>
      <trkpt lat="18.5076318" lon="73.8079583"><time>2026-10-09T05:00:01.003669Z</time></trkpt>
      <trkpt lat="18.5079081" lon="73.8084087"><time>2026-10-09T05:00:02.007339Z</time></trkpt>
      <trkpt lat="18.5082848" lon="73.8093953"><time>2026-10-09T05:00:04.014677Z</time></trkpt>
      <trkpt lat="18.5085349" lon="73.8104202"><time>2026-10-09T05:00:06.022016Z</time></trkpt>
      <trkpt lat="18.5088424" lon="73.8108615"><time>2026-10-09T05:00:07.025685Z</time></trkpt>
      <trkpt lat="18.5093999" lon="73.8117505"><time>2026-10-09T05:00:09.033024Z</time></trkpt>
      <trkpt lat="18.5095132" lon="73.8122861"><time>2026-10-09T05:00:10.036693Z</time></trkpt>
      <trkpt lat="18.5095609" lon="73.8128230"><time>2026-10-09T05:00:11.040363Z</time></trkpt>
      <trkpt lat="18.5095808" lon="73.8133300"><time>2026-10-09T05:00:12.044032Z</time></trkpt>
      <trkpt lat="18.5096463" lon="73.8138833"><time>2026-10-09T05:00:13.047701Z</time></trkpt>
      <trkpt lat="18.5096942" lon="73.8144066"><time>2026-10-09T05:00:14.051370Z</time></trkpt>
      <trkpt lat="18.5098095" lon="73.8149432"><time>2026-10-09T05:00:15.055040Z</time></trkpt>
      <trkpt lat="18.5099947" lon="73.8154496"><time>2026-10-09T05:00:16.058709Z</time></trkpt>
      <trkpt lat="18.5098797" lon="73.8155471"><time>2026-10-09T05:00:17.062378Z</time></trkpt>
      <trkpt lat="18.5097169" lon="73.8150296"><time>2026-10-09T05:00:18.066048Z</time></trkpt>
      <trkpt lat="18.5095807" lon="73.8145117"><time>2026-10-09T05:00:19.069717Z</time></trkpt>
      <trkpt lat="18.5094522" lon="73.8139509"><time>2026-10-09T05:00:20.073386Z</time></trkpt>
      <trkpt lat="18.5094335" lon="73.8134347"><time>2026-10-09T05:00:21.077056Z</time></trkpt>
      <trkpt lat="18.5093947" lon="73.8128955"><time>2026-10-09T05:00:22.080725Z</time></trkpt>
      <trkpt lat="18.5093662" lon="73.8123576"><time>2026-10-09T05:00:23.084394Z</time></trkpt>
      <trkpt lat="18.5088864" lon="73.8124064"><time>2026-10-09T05:00:24.088064Z</time></trkpt>
      <trkpt lat="18.5088074" lon="73.8128603"><time>2026-10-09T05:00:25.091733Z</time></trkpt>
  </trkseg></trk>
</gpx>
